UNKNOWN                 
1 81865U          26008.46733546  .00001658  00000+0  13582-2 0  9992
2 81865  82.8057   8.0476 0060967 289.2388 228.4597 13.88112595612259
UNKNOWN                 
1 81893U          26011.22642894  .00001097  00000+0  11641-2 0  9997
2 81893 100.0499   1.1584 0020344 191.9514 168.1154 13.76770920608132
UNKNOWN                 
1 81899U          26011.50443267  .00001119  00000+0  26726-2 0  9992
2 81899 102.4125 123.6756 0181380 152.7709 208.3049 13.20291080582911
UNKNOWN                 
1 81921U          26011.22022129  .00001504  00000+0  63836-3 0  9999
2 81921  65.7098 346.2113 0844073 101.7865 267.9012 13.15244741 29664
UNKNOWN                 
1 81946U          26011.61017686  .00000466  00000+0  16878-2 0  9990
2 81946  66.4181  95.1974 0674435 336.8538  76.8937 12.42596178551596
UNKNOWN                 
1 81947U          26010.48417875  .00004826  00000+0  47237-3 0  9997
2 81947  66.0750  87.9698 0372213 124.7244 238.9516 14.53133752635196
UNKNOWN                 
1 81964U          26011.19460862  .00000251  00000+0  24103-3 0  9994
2 81964  66.5828 185.6313 0030034  62.1125 298.2991 13.95816979618158
UNKNOWN                 
1 81969U          26011.08075224  .00011375  00000+0  66431-3 0  9990
2 81969  86.6891 140.7042 0006076  75.4062 284.7851 15.11792241444600
UNKNOWN                 
1 81995U          26006.57558436  .00009093  00000+0  16832-2 0  9991
2 81995  65.7469  59.0311 0520172 284.8380  69.5650 14.04156685607712
UNKNOWN                 
1 82043U          26009.37725483  .00001714  00000+0  48133-3 0  9997
2 82043  97.9297 160.7612 0230906   0.6170 359.5258 14.32666042577807
UNKNOWN                 
1 82051U          26006.98630215  .00006656  00000+0  21791-2 0  9998
2 82051  98.7461  97.8569 0093487 185.3657 174.6535 14.36311709576030
UNKNOWN                 
1 82073U          26011.44415234  .00003369  00000+0  85899-3 0  9999
2 82073  97.7496  89.7389 0207050 196.7661 162.6616 14.39077758579390
