CCSDS_OMM_VERS = 2.0
CREATION_DATE  = 
ORIGINATOR     = 

OBJECT_NAME    = UNKNOWN
OBJECT_ID      = 
CENTER_NAME    = EARTH
REF_FRAME      = TEME
TIME_SYSTEM    = UTC
MEAN_ELEMENT_THEORY = SGP/SGP4

EPOCH          = 2026-01-08T11:12:57.783744
MEAN_MOTION    = 13.88112595
ECCENTRICITY   = .0060967
INCLINATION    = 82.8057
RA_OF_ASC_NODE = 8.0476
ARG_OF_PERICENTER = 289.2388
MEAN_ANOMALY   = 228.4597

EPHEMERIS_TYPE = 0
CLASSIFICATION_TYPE = U
NORAD_CAT_ID   = 81865
ELEMENT_SET_NO = 999
REV_AT_EPOCH   = 61225
BSTAR          = .13582E-2
MEAN_MOTION_DOT = .1658E-4
MEAN_MOTION_DDOT = 0

CCSDS_OMM_VERS = 2.0
CREATION_DATE  = 
ORIGINATOR     = 

OBJECT_NAME    = UNKNOWN
OBJECT_ID      = 
CENTER_NAME    = EARTH
REF_FRAME      = TEME
TIME_SYSTEM    = UTC
MEAN_ELEMENT_THEORY = SGP/SGP4

EPOCH          = 2026-01-11T05:26:03.460416
MEAN_MOTION    = 13.76770920
ECCENTRICITY   = .0020344
INCLINATION    = 100.0499
RA_OF_ASC_NODE = 1.1584
ARG_OF_PERICENTER = 191.9514
MEAN_ANOMALY   = 168.1154

EPHEMERIS_TYPE = 0
CLASSIFICATION_TYPE = U
NORAD_CAT_ID   = 81893
ELEMENT_SET_NO = 999
REV_AT_EPOCH   = 60813
BSTAR          = .11641E-2
MEAN_MOTION_DOT = .1097E-4
MEAN_MOTION_DDOT = 0

CCSDS_OMM_VERS = 2.0
CREATION_DATE  = 
ORIGINATOR     = 

OBJECT_NAME    = UNKNOWN
OBJECT_ID      = 
CENTER_NAME    = EARTH
REF_FRAME      = TEME
TIME_SYSTEM    = UTC
MEAN_ELEMENT_THEORY = SGP/SGP4

EPOCH          = 2026-01-11T12:06:22.982688
MEAN_MOTION    = 13.20291080
ECCENTRICITY   = .018138
INCLINATION    = 102.4125
RA_OF_ASC_NODE = 123.6756
ARG_OF_PERICENTER = 152.7709
MEAN_ANOMALY   = 208.3049

EPHEMERIS_TYPE = 0
CLASSIFICATION_TYPE = U
NORAD_CAT_ID   = 81899
ELEMENT_SET_NO = 999
REV_AT_EPOCH   = 58291
BSTAR          = .26726E-2
MEAN_MOTION_DOT = .1119E-4
MEAN_MOTION_DDOT = 0

CCSDS_OMM_VERS = 2.0
CREATION_DATE  = 
ORIGINATOR     = 

OBJECT_NAME    = UNKNOWN
OBJECT_ID      = 
CENTER_NAME    = EARTH
REF_FRAME      = TEME
TIME_SYSTEM    = UTC
MEAN_ELEMENT_THEORY = SGP/SGP4

EPOCH          = 2026-01-11T05:17:07.119456
MEAN_MOTION    = 13.15244741
ECCENTRICITY   = .0844073
INCLINATION    = 65.7098
RA_OF_ASC_NODE = 346.2113
ARG_OF_PERICENTER = 101.7865
MEAN_ANOMALY   = 267.9012

EPHEMERIS_TYPE = 0
CLASSIFICATION_TYPE = U
NORAD_CAT_ID   = 81921
ELEMENT_SET_NO = 999
REV_AT_EPOCH   = 2966
BSTAR          = .63836E-3
MEAN_MOTION_DOT = .1504E-4
MEAN_MOTION_DDOT = 0

CCSDS_OMM_VERS = 2.0
CREATION_DATE  = 
ORIGINATOR     = 

OBJECT_NAME    = UNKNOWN
OBJECT_ID      = 
CENTER_NAME    = EARTH
REF_FRAME      = TEME
TIME_SYSTEM    = UTC
MEAN_ELEMENT_THEORY = SGP/SGP4

EPOCH          = 2026-01-11T14:38:39.280704
MEAN_MOTION    = 12.42596178
ECCENTRICITY   = .0674435
INCLINATION    = 66.4181
RA_OF_ASC_NODE = 95.1974
ARG_OF_PERICENTER = 336.8538
MEAN_ANOMALY   = 76.8937

EPHEMERIS_TYPE = 0
CLASSIFICATION_TYPE = U
NORAD_CAT_ID   = 81946
ELEMENT_SET_NO = 999
REV_AT_EPOCH   = 55159
BSTAR          = .16878E-2
MEAN_MOTION_DOT = .466E-5
MEAN_MOTION_DDOT = 0

CCSDS_OMM_VERS = 2.0
CREATION_DATE  = 
ORIGINATOR     = 

OBJECT_NAME    = UNKNOWN
OBJECT_ID      = 
CENTER_NAME    = EARTH
REF_FRAME      = TEME
TIME_SYSTEM    = UTC
MEAN_ELEMENT_THEORY = SGP/SGP4

EPOCH          = 2026-01-10T11:37:13.044000
MEAN_MOTION    = 14.53133752
ECCENTRICITY   = .0372213
INCLINATION    = 66.0750
RA_OF_ASC_NODE = 87.9698
ARG_OF_PERICENTER = 124.7244
MEAN_ANOMALY   = 238.9516

EPHEMERIS_TYPE = 0
CLASSIFICATION_TYPE = U
NORAD_CAT_ID   = 81947
ELEMENT_SET_NO = 999
REV_AT_EPOCH   = 63519
BSTAR          = .47237E-3
MEAN_MOTION_DOT = .4826E-4
MEAN_MOTION_DDOT = 0

CCSDS_OMM_VERS = 2.0
CREATION_DATE  = 
ORIGINATOR     = 

OBJECT_NAME    = UNKNOWN
OBJECT_ID      = 
CENTER_NAME    = EARTH
REF_FRAME      = TEME
TIME_SYSTEM    = UTC
MEAN_ELEMENT_THEORY = SGP/SGP4

EPOCH          = 2026-01-11T04:40:14.184768
MEAN_MOTION    = 13.95816979
ECCENTRICITY   = .0030034
INCLINATION    = 66.5828
RA_OF_ASC_NODE = 185.6313
ARG_OF_PERICENTER = 62.1125
MEAN_ANOMALY   = 298.2991

EPHEMERIS_TYPE = 0
CLASSIFICATION_TYPE = U
NORAD_CAT_ID   = 81964
ELEMENT_SET_NO = 999
REV_AT_EPOCH   = 61815
BSTAR          = .24103E-3
MEAN_MOTION_DOT = .251E-5
MEAN_MOTION_DDOT = 0

CCSDS_OMM_VERS = 2.0
CREATION_DATE  = 
ORIGINATOR     = 

OBJECT_NAME    = UNKNOWN
OBJECT_ID      = 
CENTER_NAME    = EARTH
REF_FRAME      = TEME
TIME_SYSTEM    = UTC
MEAN_ELEMENT_THEORY = SGP/SGP4

EPOCH          = 2026-01-11T01:56:16.993536
MEAN_MOTION    = 15.11792241
ECCENTRICITY   = .0006076
INCLINATION    = 86.6891
RA_OF_ASC_NODE = 140.7042
ARG_OF_PERICENTER = 75.4062
MEAN_ANOMALY   = 284.7851

EPHEMERIS_TYPE = 0
CLASSIFICATION_TYPE = U
NORAD_CAT_ID   = 81969
ELEMENT_SET_NO = 999
REV_AT_EPOCH   = 44460
BSTAR          = .66431E-3
MEAN_MOTION_DOT = .11375E-3
MEAN_MOTION_DDOT = 0

CCSDS_OMM_VERS = 2.0
CREATION_DATE  = 
ORIGINATOR     = 

OBJECT_NAME    = UNKNOWN
OBJECT_ID      = 
CENTER_NAME    = EARTH
REF_FRAME      = TEME
TIME_SYSTEM    = UTC
MEAN_ELEMENT_THEORY = SGP/SGP4

EPOCH          = 2026-01-06T13:48:50.488704
MEAN_MOTION    = 14.04156685
ECCENTRICITY   = .0520172
INCLINATION    = 65.7469
RA_OF_ASC_NODE = 59.0311
ARG_OF_PERICENTER = 284.8380
MEAN_ANOMALY   = 69.5650

EPHEMERIS_TYPE = 0
CLASSIFICATION_TYPE = U
NORAD_CAT_ID   = 81995
ELEMENT_SET_NO = 999
REV_AT_EPOCH   = 60771
BSTAR          = .16832E-2
MEAN_MOTION_DOT = .9093E-4
MEAN_MOTION_DDOT = 0

CCSDS_OMM_VERS = 2.0
CREATION_DATE  = 
ORIGINATOR     = 

OBJECT_NAME    = UNKNOWN
OBJECT_ID      = 
CENTER_NAME    = EARTH
REF_FRAME      = TEME
TIME_SYSTEM    = UTC
MEAN_ELEMENT_THEORY = SGP/SGP4

EPOCH          = 2026-01-09T09:03:14.817312
MEAN_MOTION    = 14.32666042
ECCENTRICITY   = .0230906
INCLINATION    = 97.9297
RA_OF_ASC_NODE = 160.7612
ARG_OF_PERICENTER = 0.6170
MEAN_ANOMALY   = 359.5258

EPHEMERIS_TYPE = 0
CLASSIFICATION_TYPE = U
NORAD_CAT_ID   = 82043
ELEMENT_SET_NO = 999
REV_AT_EPOCH   = 57780
BSTAR          = .48133E-3
MEAN_MOTION_DOT = .1714E-4
MEAN_MOTION_DDOT = 0

CCSDS_OMM_VERS = 2.0
CREATION_DATE  = 
ORIGINATOR     = 

OBJECT_NAME    = UNKNOWN
OBJECT_ID      = 
CENTER_NAME    = EARTH
REF_FRAME      = TEME
TIME_SYSTEM    = UTC
MEAN_ELEMENT_THEORY = SGP/SGP4

EPOCH          = 2026-01-06T23:40:16.505760
MEAN_MOTION    = 14.36311709
ECCENTRICITY   = .0093487
INCLINATION    = 98.7461
RA_OF_ASC_NODE = 97.8569
ARG_OF_PERICENTER = 185.3657
MEAN_ANOMALY   = 174.6535

EPHEMERIS_TYPE = 0
CLASSIFICATION_TYPE = U
NORAD_CAT_ID   = 82051
ELEMENT_SET_NO = 999
REV_AT_EPOCH   = 57603
BSTAR          = .21791E-2
MEAN_MOTION_DOT = .6656E-4
MEAN_MOTION_DDOT = 0

CCSDS_OMM_VERS = 2.0
CREATION_DATE  = 
ORIGINATOR     = 

OBJECT_NAME    = UNKNOWN
OBJECT_ID      = 
CENTER_NAME    = EARTH
REF_FRAME      = TEME
TIME_SYSTEM    = UTC
MEAN_ELEMENT_THEORY = SGP/SGP4

EPOCH          = 2026-01-11T10:39:34.762176
MEAN_MOTION    = 14.39077758
ECCENTRICITY   = .020705
INCLINATION    = 97.7496
RA_OF_ASC_NODE = 89.7389
ARG_OF_PERICENTER = 196.7661
MEAN_ANOMALY   = 162.6616

EPHEMERIS_TYPE = 0
CLASSIFICATION_TYPE = U
NORAD_CAT_ID   = 82073
ELEMENT_SET_NO = 999
REV_AT_EPOCH   = 57939
BSTAR          = .85899E-3
MEAN_MOTION_DOT = .3369E-4
MEAN_MOTION_DDOT = 0

